IRIDIUM 57 [-]          
1 25273U 98019B   24058.84571332  .00000543  00000+0  18357-3 0  9996
2 25273  86.4017 344.3372 0002150  86.5809 273.5633 14.35101377356596
IRIDIUM 63 [-]          
1 25286U 98021B   24058.91051465  .00000457  00000+0  15171-3 0  9996
2 25286  86.3943 281.2252 0002131  82.3417 277.8021 14.35619232355637
IRIDIUM 69 [-]          
1 25319U 98026A   24058.95393698  .00000423  00000+0  12858-3 0  9991
2 25319  86.3962 295.9313 0003719 119.4024 240.7546 14.39812550354658
IRIDIUM 71 [-]          
1 25320U 98026B   24059.11744695  .00000520  00000+0  15844-3 0  9995
2 25320  86.3947 290.6461 0001872 151.0649 209.0654 14.40137738355448
IRIDIUM 73 [-]          
1 25344U 98032C   24058.91965626  .00000791  00000+0  19772-3 0  9998
2 25344  86.4378 248.2965 0002452 103.1040 257.0439 14.50315644361647
IRIDIUM 82 [-]          
1 25467U 98051A   24058.82972336  .00012409  00000+0  67167-3 0  9991
2 25467  86.3918 337.9587 0134172 265.4059  93.1841 15.07001113351859
IRIDIUM 2 [-]           
1 25527U 98066A   24059.13362723  .00076379  00000+0  10503-2 0  9999
2 25527  85.5159  13.9046 0007485  75.1380 285.0710 15.56981737390161
